CCSDS_OMM_VERS,COMMENT,CREATION_DATE,ORIGINATOR,OBJECT_NAME,OBJECT_ID,CENTER_NAME,REF_FRAME,TIME_SYSTEM,MEAN_ELEMENT_THEORY,EPOCH,MEAN_MOTION,ECCENTRICITY,INCLINATION,RA_OF_ASC_NODE,ARG_OF_PERICENTER,MEAN_ANOMALY,EPHEMERIS_TYPE,CLASSIFICATION_TYPE,NORAD_CAT_ID,ELEMENT_SET_NO,REV_AT_EPOCH,BSTAR,MEAN_MOTION_DOT,MEAN_MOTION_DDOT,SEMIMAJOR_AXIS,PERIOD,APOAPSIS,PERIAPSIS,OBJECT_TYPE,RCS_SIZE,COUNTRY_CODE,LAUNCH_DATE,SITE,DECAY_DATE,FILE,GP_ID,TLE_LINE0,TLE_LINE1,TLE_LINE2
2,GENERATED VIA SPACE-TRACK.ORG API,2022-03-28T14:46:12,18 SPCS,BREEZE-M R/B,2000-029B,EARTH,TEME,UTC,SGP4,2022-03-28T13:03:55.970784,1.00310358,0.026117,12.7716,17.4968,299.7949,224.6144,0,U,26373,999,7995,0.0,-2.05e-06,0,42153.922,1435.545,36876.721,34674.853,ROCKET BODY,LARGE,CIS,2000-06-06,TTMTR,,3377560,199878945,0 BREEZE-M R/B,1 26373U 00029B   22087.54439781 -.00000205  00000-0  00000+0 0  9999,2 26373  12.7716  17.4968 0261170 299.7949 224.6144  1.00310358 79952
2,GENERATED VIA SPACE-TRACK.ORG API,2022-03-28T20:15:18,18 SPCS,BREEZE-M R/B,2000-029B,EARTH,TEME,UTC,SGP4,2022-03-28T14:09:43.533216,1.00310359,0.0261169,12.7716,17.4964,299.796,241.1131,0,U,26373,999,7996,0.0,-2.05e-06,0,42153.922,1435.545,36876.716,34674.857,ROCKET BODY,LARGE,CIS,2000-06-06,TTMTR,,3377801,199890904,0 BREEZE-M R/B,1 26373U 00029B   22087.59008719 -.00000205  00000-0  00000-0 0  9998,2 26373  12.7716  17.4964 0261169 299.7960 241.1131  1.00310359 79961
2,GENERATED VIA SPACE-TRACK.ORG API,2022-03-29T02:56:25,18 SPCS,BREEZE-M R/B,2000-029B,EARTH,TEME,UTC,SGP4,2022-03-28T15:27:43.130016,1.00310365,0.0261168,12.7716,17.4961,299.7975,260.6715,0,U,26373,999,7996,0.0,-2.05e-06,0,42153.92,1435.545,36876.711,34674.86,ROCKET BODY,LARGE,CIS,2000-06-06,TTMTR,,3378342,199928631,0 BREEZE-M R/B,1 26373U 00029B   22087.64424919 -.00000205  00000-0  00000-0 0  9998,2 26373  12.7716  17.4961 0261168 299.7975 260.6715  1.00310365 79964
2,GENERATED VIA SPACE-TRACK.ORG API,2022-03-29T18:00:28,18 SPCS,BREEZE-M R/B,2000-029B,EARTH,TEME,UTC,SGP4,2022-03-29T12:14:03.604416,1.00310328,0.0261145,12.7721,17.49,299.8234,213.2079,0,U,26373,999,7997,0.0,-2.07e-06,0,42153.93,1435.545,36876.624,34674.967,ROCKET BODY,LARGE,CIS,2000-06-06,TTMTR,,3379323,199976693,0 BREEZE-M R/B,1 26373U 00029B   22088.50976394 -.00000207  00000-0  00000-0 0  9995,2 26373  12.7721  17.4900 0261145 299.8234 213.2079  1.00310328 79974
2,GENERATED VIA SPACE-TRACK.ORG API,2022-03-30T03:04:27,18 SPCS,BREEZE-M R/B,2000-029B,EARTH,TEME,UTC,SGP4,2022-03-29T14:22:06.168000,1.00310325,0.0261142,12.7722,17.4894,299.8258,245.3166,0,U,26373,999,7997,0.0,-2.07e-06,0,42153.931,1435.545,36876.612,34674.98,ROCKET BODY,LARGE,CIS,2000-06-06,TTMTR,,3379484,200005037,0 BREEZE-M R/B,1 26373U 00029B   22088.59868250 -.00000207  00000-0  00000-0 0  9995,2 26373  12.7722  17.4894 0261142 299.8258 245.3166  1.00310325 79970
2,GENERATED VIA SPACE-TRACK.ORG API,2022-03-31T00:56:07,18 SPCS,BREEZE-M R/B,2000-029B,EARTH,TEME,UTC,SGP4,2022-03-30T12:14:36.045024,1.00310267,0.0261116,12.7727,17.483,299.8524,214.4423,0,U,26373,999,7998,0.0,-2.08e-06,0,42153.948,1435.546,36876.52,34675.105,ROCKET BODY,LARGE,CIS,2000-06-06,TTMTR,,3380779,200057272,0 BREEZE-M R/B,1 26373U 00029B   22089.51013941 -.00000208  00000-0  00000-0 0  9998,2 26373  12.7727  17.4830 0261116 299.8524 214.4423  1.00310267 79981
2,GENERATED VIA SPACE-TRACK.ORG API,2022-03-30T22:16:12,18 SPCS,BREEZE-M R/B,2000-029B,EARTH,TEME,UTC,SGP4,2022-03-30T14:38:30.631200,1.0031027,0.0261113,12.7727,17.4823,299.855,250.5302,0,U,26373,999,7997,0.0,-2.08e-06,0,42153.947,1435.546,36876.506,34675.117,ROCKET BODY,LARGE,CIS,2000-06-06,TTMTR,,3380503,200044015,0 BREEZE-M R/B,1 26373U 00029B   22089.61007675 -.00000208  00000-0  00000+0 0  9995,2 26373  12.7727  17.4823 0261113 299.8550 250.5302  1.00310270 79979
2,GENERATED VIA SPACE-TRACK.ORG API,2022-03-31T19:14:54,18 SPCS,BREEZE-M R/B,2000-029B,EARTH,TEME,UTC,SGP4,2022-03-31T12:30:43.890912,1.00310239,0.0261084,12.7732,17.476,299.8814,219.5875,0,U,26373,999,7999,0.0,-2.08e-06,0,42153.955,1435.546,36876.393,34675.248,ROCKET BODY,LARGE,CIS,2000-06-06,TTMTR,,3381849,200131121,0 BREEZE-M R/B,1 26373U 00029B   22090.52134133 -.00000208  00000-0  00000-0 0  9998,2 26373  12.7732  17.4760 0261084 299.8814 219.5875  1.00310239 79992
2,GENERATED VIA SPACE-TRACK.ORG API,2022-04-01T06:20:22,18 SPCS,BREEZE-M R/B,2000-029B,EARTH,TEME,UTC,SGP4,2022-03-31T14:53:16.830816,1.00310239,0.0261081,12.7733,17.4754,299.8838,255.3341,0,U,26373,999,7999,0.0,-2.08e-06,0,42153.955,1435.546,36876.38,34675.261,ROCKET BODY,LARGE,CIS,2000-06-06,TTMTR,,3382347,200166761,0 BREEZE-M R/B,1 26373U 00029B   22090.62033369 -.00000208  00000-0  00000-0 0  9998,2 26373  12.7733  17.4754 0261081 299.8838 255.3341  1.00310239 79995
2,GENERATED VIA SPACE-TRACK.ORG API,2022-04-01T18:37:21,18 SPCS,BREEZE-M R/B,2000-029B,EARTH,TEME,UTC,SGP4,2022-04-01T14:13:07.350816,1.00310202,0.0261052,12.7739,17.4686,299.9114,246.3636,0,U,26373,999,8000,0.0,-2.06e-06,0,42153.966,1435.547,36876.268,34675.393,ROCKET BODY,LARGE,CIS,2000-06-06,TTMTR,,3383353,200214635,0 BREEZE-M R/B,1 26373U 00029B   22091.59244619 -.00000206  00000-0  00000-0 0  9995,2 26373  12.7739  17.4686 0261052 299.9114 246.3636  1.00310202 80002
2,GENERATED VIA SPACE-TRACK.ORG API,2022-04-01T22:46:11,18 SPCS,BREEZE-M R/B,2000-029B,EARTH,TEME,UTC,SGP4,2022-04-01T15:32:13.257024,1.003102,0.0261049,12.7739,17.4683,299.913,266.1986,0,U,26373,999,7999,0.0,-2.06e-06,0,42153.966,1435.547,36876.256,34675.406,ROCKET BODY,LARGE,CIS,2000-06-06,TTMTR,,3383446,200234940,0 BREEZE-M R/B,1 26373U 00029B   22091.64737566 -.00000206  00000-0  00000+0 0  9998,2 26373  12.7739  17.4683 0261049 299.9130 266.1986  1.00310200 79995
2,GENERATED VIA SPACE-TRACK.ORG API,2022-04-02T02:54:51,18 SPCS,BREEZE-M R/B,2000-029B,EARTH,TEME,UTC,SGP4,2022-04-01T15:32:13.257024,1.003102,0.0261049,12.7739,17.4683,299.913,266.1986,0,U,26373,999,8000,0.0,-2.06e-06,0,42153.966,1435.547,36876.256,34675.406,ROCKET BODY,LARGE,CIS,2000-06-06,TTMTR,,3383778,200249411,0 BREEZE-M R/B,1 26373U 00029B   22091.64737566 -.00000206  00000-0  00000-0 0  9999,2 26373  12.7739  17.4683 0261049 299.9130 266.1986  1.00310200 80009
2,GENERATED VIA SPACE-TRACK.ORG API,2022-04-03T02:39:25,18 SPCS,BREEZE-M R/B,2000-029B,EARTH,TEME,UTC,SGP4,2022-04-02T15:47:50.589024,1.00310171,0.0261014,12.7744,17.4613,299.9412,271.2163,0,U,26373,999,8001,0.0,-2.03e-06,0,42153.974,1435.547,36876.117,34675.562,ROCKET BODY,LARGE,CIS,2000-06-06,TTMTR,,3385473,200309244,0 BREEZE-M R/B,1 26373U 00029B   22092.65822441 -.00000203  00000-0  00000-0 0  9995,2 26373  12.7744  17.4613 0261014 299.9412 271.2163  1.00310171 80015
2,GENERATED VIA SPACE-TRACK.ORG API,2022-04-04T03:26:05,18 SPCS,BREEZE-M R/B,2000-029B,EARTH,TEME,UTC,SGP4,2022-04-03T14:07:38.459712,1.00310145,0.026098,12.7749,17.4549,299.9672,247.1892,0,U,26373,999,8002,0.0,-2e-06,0,42153.982,1435.548,36875.981,34675.712,ROCKET BODY,LARGE,CIS,2000-06-06,TTMTR,,3386965,200363765,0 BREEZE-M R/B,1 26373U 00029B   22093.58863958 -.00000200  00000-0  00000-0 0  9993,2 26373  12.7749  17.4549 0260980 299.9672 247.1892  1.00310145 80020
2,GENERATED VIA SPACE-TRACK.ORG API,2022-04-04T14:36:12,18 SPCS,BREEZE-M R/B,2000-029B,EARTH,TEME,UTC,SGP4,2022-04-04T12:55:59.517984,1.00310105,0.0260944,12.7754,17.4484,299.9922,230.3228,0,U,26373,999,8002,0.0,-1.96e-06,0,42153.993,1435.548,36875.841,34675.875,ROCKET BODY,LARGE,CIS,2000-06-06,TTMTR,,3387453,200393447,0 BREEZE-M R/B,1 26373U 00029B   22094.53888331 -.00000196  00000-0  00000+0 0  9994,2 26373  12.7754  17.4484 0260944 299.9922 230.3228  1.00310105 80025
2,GENERATED VIA SPACE-TRACK.ORG API,2022-04-04T17:30:14,18 SPCS,BREEZE-M R/B,2000-029B,EARTH,TEME,UTC,SGP4,2022-04-04T12:55:59.517984,1.00310105,0.0260944,12.7754,17.4484,299.9922,230.3228,0,U,26373,999,8003,0.0,-1.96e-06,0,42153.993,1435.548,36875.841,34675.875,ROCKET BODY,LARGE,CIS,2000-06-06,TTMTR,,3387897,200410781,0 BREEZE-M R/B,1 26373U 00029B   22094.53888331 -.00000196  00000-0  00000-0 0  9995,2 26373  12.7754  17.4484 0260944 299.9922 230.3228  1.00310105 80036
2,GENERATED VIA SPACE-TRACK.ORG API,2022-04-05T05:34:12,18 SPCS,BREEZE-M R/B,2000-029B,EARTH,TEME,UTC,SGP4,2022-04-04T14:41:55.103712,1.00310112,0.0260942,12.7755,17.4479,299.9942,256.8857,0,U,26373,999,8003,0.0,-1.96e-06,0,42153.991,1435.548,36875.831,34675.881,ROCKET BODY,LARGE,CIS,2000-06-06,TTMTR,,3388506,200446774,0 BREEZE-M R/B,1 26373U 00029B   22094.61244333 -.00000196  00000-0  00000-0 0  9992,2 26373  12.7755  17.4479 0260942 299.9942 256.8857  1.00310112 80030
2,GENERATED VIA SPACE-TRACK.ORG API,2022-04-06T02:30:27,18 SPCS,BREEZE-M R/B,2000-029B,EARTH,TEME,UTC,SGP4,2022-04-05T14:27:42.627744,1.00310104,0.0260905,12.776,17.4412,300.0197,254.4251,0,U,26373,999,8004,0.0,-1.9e-06,0,42153.993,1435.548,36875.677,34676.039,ROCKET BODY,LARGE,CIS,2000-06-06,TTMTR,,3389912,200529743,0 BREEZE-M R/B,1 26373U 00029B   22095.60257671 -.00000190  00000-0  00000-0 0  9995,2 26373  12.7760  17.4412 0260905 300.0197 254.4251  1.00310104 80042
2,GENERATED VIA SPACE-TRACK.ORG API,2022-04-06T17:30:31,18 SPCS,BREEZE-M R/B,2000-029B,EARTH,TEME,UTC,SGP4,2022-04-06T12:09:12.377664,1.00310071,0.0260867,12.7765,17.4349,300.043,220.7941,0,U,26373,999,8005,0.0,-1.85e-06,0,42154.002,1435.549,36875.526,34676.209,ROCKET BODY,LARGE,CIS,2000-06-06,TTMTR,,3390907,200576755,0 BREEZE-M R/B,1 26373U 00029B   22096.50639326 -.00000185  00000-0  00000-0 0  9990,2 26373  12.7765  17.4349 0260867 300.0430 220.7941  1.00310071 80059
2,GENERATED VIA SPACE-TRACK.ORG API,2022-04-06T22:26:12,18 SPCS,BREEZE-M R/B,2000-029B,EARTH,TEME,UTC,SGP4,2022-04-06T15:02:42.629856,1.00310068,0.0260859,12.7766,17.4341,300.0466,264.3022,0,U,26373,999,8004,0.0,-1.84e-06,0,42154.003,1435.549,36875.493,34676.243,ROCKET BODY,LARGE,CIS,2000-06-06,TTMTR,,3391025,200595793,0 BREEZE-M R/B,1 26373U 00029B   22096.62688229 -.00000184  00000-0  00000+0 0  9997,2 26373  12.7766  17.4341 0260859 300.0466 264.3022  1.00310068 80041
